start=new Date('2022-03-21T00:00:00.000Z').valueOf();
sats=[{"MEAN_MOTION":"15.06409924","NORAD_CAT_ID":"45178","MEAN_MOTION_DDOT":"0.0000000000000","BSTAR":"0.00003049300000","OBJECT_TYPE":"PAYLOAD","CLASSIFICATION_TYPE":"U","PERIAPSIS":"545.958","TLE_LINE1":"1 45178U 20012A   22079.86836762  .00000173  00000-0  30493-4 0  9990","APOAPSIS":"548.408","ARG_OF_PERICENTER":"55.6140","FILE":"3367488","ECCENTRICITY":"0.00017690","TLE_LINE2":"2 45178  53.0565  75.1132 0001769  55.6140 304.5016 15.06409924116258","MEAN_ANOMALY":"304.5016","INCLINATION":"53.0565","OBJECT_NAME":"STARLINK-1138","DECAY_DATE":null,"CENTER_NAME":"EARTH","OBJECT_ID":"2020-012A","EPHEMERIS_TYPE":"0","ELEMENT_SET_NO":"999","EPOCH":"2022-03-20T20:50:26.962368","MEAN_MOTION_DOT":"0.00000173","RCS_SIZE":"LARGE","PERIOD":"95.592","LAUNCH_DATE":"2020-02-17","GP_ID":"199265182","TIME_SYSTEM":"UTC","SITE":"AFETR","COUNTRY_CODE":"US","MEAN_ELEMENT_THEORY":"SGP4","RA_OF_ASC_NODE":"75.1132","REF_FRAME":"TEME","REV_AT_EPOCH":"11625","SEMIMAJOR_AXIS":"6925.318"},{"PERIOD":"95.592","RCS_SIZE":"LARGE","EPOCH":"2022-03-20T11:22:31.658592","MEAN_MOTION_DOT":"-0.00000274","TIME_SYSTEM":"UTC","SITE":"AFETR","GP_ID":"199239896","LAUNCH_DATE":"2020-02-17","REV_AT_EPOCH":"11560","MEAN_ELEMENT_THEORY":"SGP4","RA_OF_ASC_NODE":"76.8837","REF_FRAME":"TEME","COUNTRY_CODE":"US","SEMIMAJOR_AXIS":"6925.332","OBJECT_TYPE":"PAYLOAD","BSTAR":"0.00000050772000","MEAN_MOTION_DDOT":"0.0000000000000","NORAD_CAT_ID":"45179","MEAN_MOTION":"15.06405432","ARG_OF_PERICENTER":"53.7312","PERIAPSIS":"546.002","TLE_LINE1":"1 45179U 20012B   22079.47397753 -.00000274  00000-0  50772-6 0  9997","APOAPSIS":"548.392","CLASSIFICATION_TYPE":"U","OBJECT_NAME":"STARLINK-1143","DECAY_DATE":null,"MEAN_ANOMALY":"306.3836","INCLINATION":"53.0537","TLE_LINE2":"2 45179  53.0537  76.8837 0001725  53.7312 306.3836 15.06405432115608","ECCENTRICITY":"0.00017250","FILE":"3367243","ELEMENT_SET_NO":"999","EPHEMERIS_TYPE":"0","OBJECT_ID":"2020-012B","CENTER_NAME":"EARTH"},{"ARG_OF_PERICENTER":"80.1773","PERIAPSIS":"543.754","TLE_LINE1":"1 45180U 20012C   22079.72611016  .00011108  00000-0  75156-3 0  9995","APOAPSIS":"547.098","CLASSIFICATION_TYPE":"U","OBJECT_TYPE":"PAYLOAD","BSTAR":"0.00075156000000","MEAN_MOTION_DDOT":"0.0000000000000","MEAN_MOTION":"15.06983525","NORAD_CAT_ID":"45180","ELEMENT_SET_NO":"999","OBJECT_ID":"2020-012C","EPHEMERIS_TYPE":"0","CENTER_NAME":"EARTH","OBJECT_NAME":"STARLINK-1192","DECAY_DATE":null,"MEAN_ANOMALY":"279.9489","INCLINATION":"53.0533","TLE_LINE2":"2 45180  53.0533  75.6959 0002415  80.1773 279.9489 15.06983525116299","FILE":"3367488","ECCENTRICITY":"0.00024150","TIME_SYSTEM":"UTC","SITE":"AFETR","GP_ID":"199265685","LAUNCH_DATE":"2020-02-17","PERIOD":"95.555","RCS_SIZE":"LARGE","MEAN_MOTION_DOT":"0.00011108","EPOCH":"2022-03-20T17:25:35.917824","SEMIMAJOR_AXIS":"6923.561","REV_AT_EPOCH":"11629","RA_OF_ASC_NODE":"75.6959","MEAN_ELEMENT_THEORY":"SGP4","REF_FRAME":"TEME","COUNTRY_CODE":"US"},{"ELEMENT_SET_NO":"999","EPHEMERIS_TYPE":"0","OBJECT_ID":"2020-012D","CENTER_NAME":"EARTH","DECAY_DATE":null,"OBJECT_NAME":"STARLINK-1200","MEAN_ANOMALY":"305.1057","INCLINATION":"53.0566","TLE_LINE2":"2 45181  53.0566  77.2475 0001878  55.0108 305.1057 15.06412598116247","FILE":"3367010","ECCENTRICITY":"0.00018780","ARG_OF_PERICENTER":"55.0108","APOAPSIS":"548.476","PERIAPSIS":"545.874","TLE_LINE1":"1 45181U 20012D   22079.39288695  .00002406  00000-0  18034-3 0  9995","CLASSIFICATION_TYPE":"U","OBJECT_TYPE":"PAYLOAD","BSTAR":"0.00018034000000","MEAN_MOTION_DDOT":"0.0000000000000","NORAD_CAT_ID":"45181","MEAN_MOTION":"15.06412598","SEMIMAJOR_AXIS":"6925.310","REV_AT_EPOCH":"11624","REF_FRAME":"TEME","RA_OF_ASC_NODE":"77.2475","MEAN_ELEMENT_THEORY":"SGP4","COUNTRY_CODE":"US","SITE":"AFETR","TIME_SYSTEM":"UTC","GP_ID":"199229109","LAUNCH_DATE":"2020-02-17","PERIOD":"95.591","RCS_SIZE":"LARGE","EPOCH":"2022-03-20T09:25:45.432480","MEAN_MOTION_DOT":"0.00002406"},{"APOAPSIS":"548.313","TLE_LINE1":"1 45182U 20012E   22079.41315891  .00004570  00000-0  32534-3 0  9993","PERIAPSIS":"546.016","ARG_OF_PERICENTER":"53.2807","CLASSIFICATION_TYPE":"U","BSTAR":"0.00032534000000","OBJECT_TYPE":"PAYLOAD","NORAD_CAT_ID":"45182","MEAN_MOTION":"15.06416006","MEAN_MOTION_DDOT":"0.0000000000000","EPHEMERIS_TYPE":"0","OBJECT_ID":"2020-012E","ELEMENT_SET_NO":"999","CENTER_NAME":"EARTH","MEAN_ANOMALY":"306.8334","INCLINATION":"53.0548","DECAY_DATE":null,"OBJECT_NAME":"STARLINK-1201","ECCENTRICITY":"0.00016590","FILE":"3367010","TLE_LINE2":"2 45182  53.0548  57.1747 0001659  53.2807 306.8334 15.06416006116378","GP_ID":"199229356","SITE":"AFETR","TIME_SYSTEM":"UTC","LAUNCH_DATE":"2020-02-17","PERIOD":"95.591","MEAN_MOTION_DOT":"0.00004570","EPOCH":"2022-03-20T09:54:56.929824","RCS_SIZE":"LARGE","SEMIMAJOR_AXIS":"6925.300","REF_FRAME":"TEME","MEAN_ELEMENT_THEORY":"SGP4","RA_OF_ASC_NODE":"57.1747","REV_AT_EPOCH":"11637","COUNTRY_CODE":"US"},{"DECAY_DATE":null,"OBJECT_NAME":"STARLINK-1202","INCLINATION":"53.0542","MEAN_ANOMALY":"301.0614","TLE_LINE2":"2 45183  53.0542  75.8966 0001807  59.0553 301.0614 15.06403728116296","ECCENTRICITY":"0.00018070","FILE":"3367488","ELEMENT_SET_NO":"999","EPHEMERIS_TYPE":"0","OBJECT_ID":"2020-012F","CENTER_NAME":"EARTH","OBJECT_TYPE":"PAYLOAD","BSTAR":"0.00005790900000","MEAN_MOTION_DDOT":"0.0000000000000","NORAD_CAT_ID":"45183","MEAN_MOTION":"15.06403728","ARG_OF_PERICENTER":"59.0553","APOAPSIS":"548.454","PERIAPSIS":"545.951","TLE_LINE1":"1 45183U 20012F   22079.69513307  .00000581  00000-0  57909-4 0  9998","CLASSIFICATION_TYPE":"U","REV_AT_EPOCH":"11629","REF_FRAME":"TEME","MEAN_ELEMENT_THEORY":"SGP4","RA_OF_ASC_NODE":"75.8966","COUNTRY_CODE":"US","SEMIMAJOR_AXIS":"6925.337","PERIOD":"95.592","RCS_SIZE":"LARGE","MEAN_MOTION_DOT":"0.00000581","EPOCH":"2022-03-20T16:40:59.497248","TIME_SYSTEM":"UTC","SITE":"AFETR","GP_ID":"199265435","LAUNCH_DATE":"2020-02-17"},{"CENTER_NAME":"EARTH","ELEMENT_SET_NO":"999","OBJECT_ID":"2020-012G","EPHEMERIS_TYPE":"0","TLE_LINE2":"2 45184  53.0566  56.2287 0001873  50.3411 309.7743 15.06396212115591","FILE":"3367488","ECCENTRICITY":"0.00018730","OBJECT_NAME":"STARLINK-1205","DECAY_DATE":null,"MEAN_ANOMALY":"309.7743","INCLINATION":"53.0566","CLASSIFICATION_TYPE":"U","ARG_OF_PERICENTER":"50.3411","PERIAPSIS":"545.928","TLE_LINE1":"1 45184U 20012G   22079.61957514 -.00000786  00000-0 -33834-4 0  9993","APOAPSIS":"548.522","MEAN_MOTION_DDOT":"0.0000000000000","MEAN_MOTION":"15.06396212","NORAD_CAT_ID":"45184","OBJECT_TYPE":"PAYLOAD","BSTAR":"-0.00003383400000","SEMIMAJOR_AXIS":"6925.360","COUNTRY_CODE":"US","REV_AT_EPOCH":"11559","RA_OF_ASC_NODE":"56.2287","MEAN_ELEMENT_THEORY":"SGP4","REF_FRAME":"TEME","LAUNCH_DATE":"2020-02-17","TIME_SYSTEM":"UTC","SITE":"AFETR","GP_ID":"199266185","RCS_SIZE":"LARGE","EPOCH":"2022-03-20T14:52:11.292096","MEAN_MOTION_DOT":"-0.00000786","PERIOD":"95.592"},{"MEAN_ANOMALY":"295.5366","INCLINATION":"53.0548","DECAY_DATE":null,"OBJECT_NAME":"STARLINK-1216","FILE":"3367488","ECCENTRICITY":"0.00015330","TLE_LINE2":"2 45185  53.0548  75.9276 0001533  64.5782 295.5366 15.06390393116238","EPHEMERIS_TYPE":"0","OBJECT_ID":"2020-012H","ELEMENT_SET_NO":"999","CENTER_NAME":"EARTH","BSTAR":"0.00004879000000","OBJECT_TYPE":"PAYLOAD","NORAD_CAT_ID":"45185","MEAN_MOTION":"15.06390393","MEAN_MOTION_DDOT":"0.0000000000000","APOAPSIS":"548.305","TLE_LINE1":"1 45185U 20012H   22079.68776550  .00000445  00000-0  48790-4 0  9997","PERIAPSIS":"546.181","ARG_OF_PERICENTER":"64.5782","CLASSIFICATION_TYPE":"U","REF_FRAME":"TEME","RA_OF_ASC_NODE":"75.9276","MEAN_ELEMENT_THEORY":"SGP4","REV_AT_EPOCH":"11623","COUNTRY_CODE":"US","SEMIMAJOR_AXIS":"6925.378","PERIOD":"95.593","EPOCH":"2022-03-20T16:30:22.939200","MEAN_MOTION_DOT":"0.00000445","RCS_SIZE":"LARGE","GP_ID":"199264933","TIME_SYSTEM":"UTC","SITE":"AFETR","LAUNCH_DATE":"2020-02-17"},{"MEAN_MOTION_DOT":"-0.00000296","EPOCH":"2022-03-20T16:51:37.092960","RCS_SIZE":"LARGE","PERIOD":"95.592","LAUNCH_DATE":"2020-02-17","GP_ID":"199265183","TIME_SYSTEM":"UTC","SITE":"AFETR","COUNTRY_CODE":"US","REF_FRAME":"TEME","RA_OF_ASC_NODE":"75.8629","MEAN_ELEMENT_THEORY":"SGP4","REV_AT_EPOCH":"11623","SEMIMAJOR_AXIS":"6925.342","NORAD_CAT_ID":"45186","MEAN_MOTION":"15.06402102","MEAN_MOTION_DDOT":"0.0000000000000","BSTAR":"-0.00000096346000","OBJECT_TYPE":"PAYLOAD","CLASSIFICATION_TYPE":"U","APOAPSIS":"548.569","PERIAPSIS":"545.846","TLE_LINE1":"1 45186U 20012J   22079.70251265 -.00000296  00000-0 -96346-6 0  9990","ARG_OF_PERICENTER":"55.2010","ECCENTRICITY":"0.00019660","FILE":"3367488","TLE_LINE2":"2 45186  53.0538  75.8629 0001966  55.2010 304.9163 15.06402102116232","MEAN_ANOMALY":"304.9163","INCLINATION":"53.0538","DECAY_DATE":null,"OBJECT_NAME":"STARLINK-1224","CENTER_NAME":"EARTH","OBJECT_ID":"2020-012J","EPHEMERIS_TYPE":"0","ELEMENT_SET_NO":"999"},{"ARG_OF_PERICENTER":"53.2304","APOAPSIS":"548.458","PERIAPSIS":"545.819","TLE_LINE1":"1 45187U 20012K   22079.83888024  .00006357  00000-0  44500-3 0  9998","CLASSIFICATION_TYPE":"U","OBJECT_TYPE":"PAYLOAD","BSTAR":"0.00044500000000","MEAN_MOTION_DDOT":"0.0000000000000","MEAN_MOTION":"15.06424544","NORAD_CAT_ID":"45187","ELEMENT_SET_NO":"999","EPHEMERIS_TYPE":"0","OBJECT_ID":"2020-012K","CENTER_NAME":"EARTH","DECAY_DATE":null,"OBJECT_NAME":"STARLINK-1225","MEAN_ANOMALY":"306.8860","INCLINATION":"53.0549","TLE_LINE2":"2 45187  53.0549  75.2451 0001905  53.2304 306.8860 15.06424544116306","FILE":"3367488","ECCENTRICITY":"0.00019050","SITE":"AFETR","TIME_SYSTEM":"UTC","GP_ID":"199265935","LAUNCH_DATE":"2020-02-17","PERIOD":"95.591","RCS_SIZE":"LARGE","EPOCH":"2022-03-20T20:07:59.252736","MEAN_MOTION_DOT":"0.00006357","SEMIMAJOR_AXIS":"6925.273","REV_AT_EPOCH":"11630","REF_FRAME":"TEME","RA_OF_ASC_NODE":"75.2451","MEAN_ELEMENT_THEORY":"SGP4","COUNTRY_CODE":"US"}];
